      2.10          N: GNSS NAV DATA                        RINEX VERSION / TYPE
fic2rin                                 12/07/2019 00:17:29 PGM / RUN BY / DATE
                                                            END OF HEADER
21 19 12  6  1 59 44.0-7.529137656093e-05 5.798028723802e-12 0.000000000000e+00
    1.000000000000e+00 1.587500000000e+01 4.545903640848e-09 3.055721537696e+00
    8.009374141693e-07 2.463119034655e-02 6.655231118202e-06 5.153609569550e+03
    4.391840000000e+05 3.650784492493e-07-1.487632939140e-01 1.359730958939e-07
    9.512707216610e-01 2.411250000000e+02-1.392057892639e+00-7.769609349702e-09
    1.753644474903e-10 1.000000000000e+00 2.082000000000e+03 0.000000000000e+00
    2.400000000000e+00 0.000000000000e+00-1.024454832077e-08 1.000000000000e+00
    4.334100000000e+05 4.000000000000e+00
23 19 12  6  1 59 44.0-1.513278111815e-04 2.273736754432e-12 0.000000000000e+00
    1.000000000000e+00-1.481250000000e+01 4.876988860448e-09-6.337334055401e-01
   -5.885958671570e-07 1.325758663006e-02 1.038238406181e-05 5.153712423325e+03
    4.391840000000e+05 1.303851604462e-08 1.986735213919e+00 2.495944499969e-07
    9.430768282610e-01 1.708125000000e+02-2.217427374031e+00-8.346061932694e-09
   -5.214502919263e-11 1.000000000000e+00 2.082000000000e+03 0.000000000000e+00
    2.400000000000e+00 0.000000000000e+00-2.048909664154e-08 1.000000000000e+00
    4.336500000000e+05 4.000000000000e+00
29 19 12  6  1 59 44.0 2.600252628326e-05-9.777068044059e-12 0.000000000000e+00
    0.000000000000e+00-1.712500000000e+01 3.796229556770e-09 9.817727991435e-01
   -1.017004251480e-06 1.040599774569e-03 8.368864655495e-06 5.153662534714e+03
    4.391840000000e+05-1.862645149231e-08-1.065757012577e+00-2.235174179077e-08
    9.857149698422e-01 2.305937500000e+02 2.044905051418e+00-7.733179260814e-09
   -1.485776174256e-10 1.000000000000e+00 2.082000000000e+03 0.000000000000e+00
    2.400000000000e+00 0.000000000000e+00-9.778887033463e-09 0.000000000000e+00
    4.339500000000e+05 4.000000000000e+00
26 19 12  6  1 59 44.0 9.946804493666e-05 8.185452315956e-12 0.000000000000e+00
    4.000000000000e+00 8.000000000000e+00 5.076282876129e-09 2.680245614371e+00
    4.731118679047e-07 4.314485122450e-03 4.993751645088e-06 5.153708976746e+03
    4.391840000000e+05-1.322478055954e-07-2.210307239094e+00-1.862645149231e-09
    9.490508195475e-01 2.772812500000e+02 1.333584710299e-01-8.349633510036e-09
   -1.317912039184e-10 1.000000000000e+00 2.082000000000e+03 0.000000000000e+00
    2.400000000000e+00 0.000000000000e+00 7.450580596924e-09 4.000000000000e+00
    4.379100000000e+05 4.000000000000e+00
 8 19 12  6  1 59 44.0-1.575239002705e-05-1.250555214938e-12 0.000000000000e+00
    3.100000000000e+01-1.543750000000e+01 4.214461263514e-09 1.032654416807e+00
   -7.636845111847e-07 4.796965746209e-03 8.519738912582e-06 5.153599302292e+03
    4.391840000000e+05 6.146728992462e-08-1.147458961163e+00 2.980232238770e-08
    9.700457362186e-01 2.149375000000e+02-2.321579235665e-01-7.972832100459e-09
   -2.475103097979e-10 1.000000000000e+00 2.082000000000e+03 0.000000000000e+00
    2.400000000000e+00 0.000000000000e+00 5.122274160385e-09 3.100000000000e+01
    4.387200000000e+05 4.000000000000e+00
 8 19 12  6  3 59 44.0-1.576170325279e-05-1.250555214938e-12 0.000000000000e+00
    3.200000000000e+01-1.762500000000e+01 4.324823003380e-09 2.083167708891e+00
   -7.450580596924e-07 4.797131288797e-03 8.247792720795e-06 5.153596702576e+03
    4.463840000000e+05 6.705522537231e-08-1.147516708391e+00 1.303851604462e-07
    9.700440962874e-01 2.250000000000e+02-2.324458609546e-01-7.976046520067e-09
   -1.789360248322e-10 1.000000000000e+00 2.082000000000e+03 0.000000000000e+00
    2.400000000000e+00 0.000000000000e+00 5.122274160385e-09 3.200000000000e+01
    4.392000000000e+05 4.000000000000e+00
23 19 12  6  3 59 44.0-1.513110473752e-04 2.273736754432e-12 0.000000000000e+00
    2.000000000000e+00-1.343750000000e+01 4.825558146723e-09 4.164536441087e-01
   -5.625188350677e-07 1.325770549010e-02 1.020729541779e-05 5.153712730408e+03
    4.463840000000e+05-2.123415470123e-07 1.986675778483e+00 2.086162567139e-07
    9.430763835339e-01 1.760000000000e+02-2.217455674181e+00-8.281773540539e-09
   -1.678641350722e-10 1.000000000000e+00 2.082000000000e+03 0.000000000000e+00
    2.400000000000e+00 0.000000000000e+00-2.048909664154e-08 2.000000000000e+00
    4.392000000000e+05 4.000000000000e+00
21 19 12  6  3 59 44.0-7.524946704507e-05 5.798028723802e-12 0.000000000000e+00
    2.000000000000e+00 2.071875000000e+01 4.509830709694e-09-2.177261623983e+00
    1.298263669014e-06 2.463156322483e-02 6.752088665962e-06 5.153608596802e+03
    4.463840000000e+05 2.700835466385e-07-1.488193529348e-01 3.222376108170e-07
    9.512723791472e-01 2.388750000000e+02-1.392039783176e+00-7.783895659069e-09
    2.378670509746e-10 1.000000000000e+00 2.082000000000e+03 0.000000000000e+00
    2.400000000000e+00 0.000000000000e+00-1.024454832077e-08 2.000000000000e+00
    4.392000000000e+05 4.000000000000e+00
29 19 12  6  3 59 44.0 2.593174576759e-05-9.777068044059e-12 0.000000000000e+00
    1.000000000000e+00-2.668750000000e+01 3.907662769839e-09 2.033582507285e+00
   -1.344829797745e-06 1.040561241098e-03 8.637085556984e-06 5.153659347534e+03
    4.463840000000e+05-1.862645149231e-09-1.065812838994e+00-5.774199962616e-08
    9.857138492470e-01 2.230937500000e+02 2.043279175968e+00-7.756037355802e-09
   -1.328626771209e-10 1.000000000000e+00 2.082000000000e+03 0.000000000000e+00
    2.400000000000e+00 0.000000000000e+00-9.778887033463e-09 1.000000000000e+00
    4.392000000000e+05 4.000000000000e+00
26 19 12  6  3 59 44.0 9.952718392015e-05 8.185452315956e-12 0.000000000000e+00
    5.000000000000e+00 7.875000000000e+00 5.034495421228e-09-2.552788876715e+00
    3.520399332047e-07 4.314167192206e-03 5.025416612625e-06 5.153709558487e+03
    4.463840000000e+05-1.080334186554e-07-2.210367486449e+00-9.313225746155e-08
    9.490498364665e-01 2.798437500000e+02 1.333706425083e-01-8.375706024632e-09
   -1.060758470562e-10 1.000000000000e+00 2.082000000000e+03 0.000000000000e+00
    2.400000000000e+00 0.000000000000e+00 7.450580596924e-09 5.000000000000e+00
    4.392000000000e+05 4.000000000000e+00
 2 19 12  6  4  0  0.0-3.607491962612e-04-7.503331289627e-12 0.000000000000e+00
    7.000000000000e+00 1.825000000000e+01 4.777341852607e-09-2.544853669656e-02
    1.003965735435e-06 1.949327532202e-02 7.640570402145e-06 5.153586723328e+03
    4.464000000000e+05-2.793967723846e-07-1.520668789273e-01 8.009374141693e-08
    9.574117533225e-01 2.359062500000e+02-1.693453047368e+00-8.558570784541e-09
    2.400099973798e-10 1.000000000000e+00 2.082000000000e+03 0.000000000000e+00
    2.400000000000e+00 0.000000000000e+00-1.769512891769e-08 7.000000000000e+00
    4.392000000000e+05 4.000000000000e+00
 1 19 12  6  4  0  0.0-2.204221673310e-04-1.239186531166e-11 0.000000000000e+00
    6.200000000000e+01 1.215625000000e+01 4.266606292706e-09-3.214897828370e-01
    6.258487701416e-07 9.180673630908e-03 6.768852472305e-06 5.153642204285e+03
    4.464000000000e+05 4.097819328308e-08-7.938965295485e-02 1.266598701477e-07
    9.783572745647e-01 2.570937500000e+02 7.621343456346e-01-8.133553080847e-09
    1.939366496685e-10 1.000000000000e+00 2.082000000000e+03 0.000000000000e+00
    2.400000000000e+00 0.000000000000e+00 5.587935447693e-09 6.200000000000e+01
    4.392000000000e+05 4.000000000000e+00
 5 19 12  6  4  0  0.0-4.326924681664e-06-4.547473508865e-13 0.000000000000e+00
    5.800000000000e+01-4.096875000000e+01 4.964849663060e-09 2.532680191427e+00
   -2.227723598480e-06 5.807083449326e-03 5.375593900681e-06 5.153555408478e+03
    4.464000000000e+05 2.607703208923e-08 9.322595731075e-01-6.146728992462e-08
    9.509984389593e-01 2.723437500000e+02 8.062484223401e-01-8.302845846856e-09
   -8.607501394126e-11 1.000000000000e+00 2.082000000000e+03 0.000000000000e+00
    2.400000000000e+00 0.000000000000e+00-1.117587089539e-08 5.800000000000e+01
    4.392000000000e+05 4.000000000000e+00
 6 19 12  6  4  0  0.0-1.451265998185e-04-1.136868377216e-11 0.000000000000e+00
    3.200000000000e+01 1.634375000000e+01 4.184102856107e-09 4.950503223187e-02
    8.717179298401e-07 1.627196557820e-03 7.458031177521e-06 5.153708299637e+03
    4.464000000000e+05-9.313225746155e-09-8.765052605909e-02-3.166496753693e-08
    9.779633677797e-01 2.463750000000e+02-1.204508177080e+00-7.975689362333e-09
    2.457245211269e-10 1.000000000000e+00 2.082000000000e+03 0.000000000000e+00
    2.400000000000e+00 0.000000000000e+00 4.656612873077e-09 3.200000000000e+01
    4.392000000000e+05 4.000000000000e+00
 3 19 12  6  4  0  0.0-4.801200702786e-05-6.480149750132e-12 0.000000000000e+00
    6.800000000000e+01-4.193750000000e+01 4.614477925813e-09-1.501076843224e+00
   -2.175569534302e-06 2.600218751468e-03 6.174668669701e-06 5.153656524658e+03
    4.464000000000e+05 4.656612873077e-08 9.617670608642e-01-9.313225746155e-09
    9.640934063602e-01 2.638437500000e+02 7.910082523487e-01-8.132124449911e-09
   -1.164334213479e-10 1.000000000000e+00 2.082000000000e+03 0.000000000000e+00
    2.400000000000e+00 0.000000000000e+00 2.328306436539e-09 6.800000000000e+01
    4.392000000000e+05 4.000000000000e+00
12 19 12  6  4  0  0.0 1.762085594237e-04-3.979039320257e-12 0.000000000000e+00
    2.700000000000e+01-3.406250000000e+00 4.396611707954e-09-1.603061004051e+00
   -4.842877388000e-08 7.663030410185e-03 4.757195711136e-06 5.153781232834e+03
    4.464000000000e+05 1.974403858185e-07-2.111497933804e+00 4.284083843231e-08
    9.804455798824e-01 2.984375000000e+02 1.093494685449e+00-8.027477233791e-09
   -1.267909956396e-10 1.000000000000e+00 2.082000000000e+03 0.000000000000e+00
    2.400000000000e+00 0.000000000000e+00-1.257285475731e-08 2.700000000000e+01
    4.392000000000e+05 4.000000000000e+00
